OBJECT_NAME,OBJECT_ID,EPOCH,MEAN_MOTION,ECCENTRICITY,INCLINATION,RA_OF_ASC_NODE,ARG_OF_PERICENTER,MEAN_ANOMALY,EPHEMERIS_TYPE,CLASSIFICATION_TYPE,NORAD_CAT_ID,ELEMENT_SET_NO,REV_AT_EPOCH,BSTAR,MEAN_MOTION_DOT,MEAN_MOTION_DDOT
STARLINK-34092,2025-095Q,2026-07-07T12:51:43.367040,15.27598261,.00016631,43.0029,219.6546,216.0316,144.0424,0,U,63904,999,6610,.30244506E-3,.8074E-4,0
STARLINK-34114,2025-095R,2026-07-07T03:37:53.429376,15.27558551,.00012944,43.0008,221.9337,263.9478,96.1226,0,U,63905,999,6604,.31983121E-3,.8543E-4,0
STARLINK-33770,2025-095S,2026-07-07T04:03:35.096544,15.27560491,.00013203,42.9991,221.1974,272.2395,87.8305,0,U,63906,999,6605,.45990385E-3,.12407E-3,0
STARLINK-34106,2025-095T,2026-07-07T03:58:02.177472,15.27561333,.00025245,42.9997,221.1666,291.1985,68.8596,0,U,63907,999,6605,.46392584E-3,.12519E-3,0
STARLINK-34083,2025-095U,2026-07-07T03:32:20.656320,15.27558233,.00014559,43.0024,221.9034,267.6363,92.4322,0,U,63908,999,6604,.50068375E-3,.13532E-3,0
STARLINK-34066,2025-095V,2026-07-07T12:36:55.816992,15.27568437,.00015227,43.0001,219.5769,268.0876,91.9801,0,U,63909,999,6610,.65586027E-3,.17823E-3,0
STARLINK-34071,2025-095W,2026-07-07T04:55:23.906784,15.27561091,.00013331,43.0017,221.4729,266.8782,93.1917,0,U,63910,999,6605,.43182649E-3,.11633E-3,0
STARLINK-34038,2025-095X,2026-07-07T10:51:40.271616,15.27562623,.00013891,42.9991,219.8858,276.3649,83.7044,0,U,63911,999,6609,.33899412E-3,.9073E-4,0
STARLINK-34031,2025-095Y,2026-07-07T03:06:26.158752,15.27566136,.0001751,42.9998,221.7614,276.2229,83.8423,0,U,63912,999,6604,.46886255E-3,.12657E-3,0
STARLINK-34070,2025-095Z,2026-07-07T10:46:07.232448,15.27569985,.00009862,42.9990,219.8550,291.8235,68.2512,0,U,63913,999,6609,.52423342E-3,.14187E-3,0
STARLINK-34068,2025-095AA,2026-07-07T10:31:19.297056,15.27573324,.00014133,42.9977,219.7766,289.0557,71.0141,0,U,63914,999,6609,.44306421E-3,.11947E-3,0
STARLINK-34076,2025-095AB,2026-07-07T10:40:33.652416,15.27575542,.00015433,42.9992,219.8253,270.4241,89.6433,0,U,63915,999,6609,.36475152E-3,.9787E-4,0
STARLINK-33910,2025-095AC,2026-07-07T13:17:24.309312,15.27590192,.00020764,43.0017,218.9258,287.0649,72.9975,0,U,63916,999,6611,.37581183E-3,.10097E-3,0
STARLINK-34075,2025-095AD,2026-07-07T10:25:46.744320,15.27551251,.00012165,42.9975,219.7491,292.5773,67.4950,0,U,63917,999,6609,.35188893E-3,.9425E-4,0
YAOGAN-40 02A,2025-096A,2026-07-07T14:42:29.969568,14.12452229,.00024077,85.9956,178.8189,77.7805,282.3647,0,U,63918,999,5945,.51837247E-4,.114E-5,0
YAOGAN-40 02B,2025-096B,2026-07-07T14:42:42.992640,14.12451443,.00025084,85.9952,178.7872,89.7980,270.3491,0,U,63919,999,5945,.71355458E-4,.15E-5,0
YAOGAN-40 02C,2025-096C,2026-07-07T14:42:35.791200,14.12453571,.00023197,85.9959,178.0661,80.8832,279.2613,0,U,63920,999,7829,.6629326E-4,.141E-5,0
TJS-19,2025-097A,2026-07-07T17:50:22.544736,1.00269406,.0003766,3.2534,317.7536,242.1776,134.6322,0,U,63924,999,435,0,-.26E-5,0
STARLINK-34012,2025-098A,2026-07-06T16:25:13.250496,14.98329262,.00029918,70.0023,334.5548,265.8334,94.2483,0,U,63926,999,6441,.16052284E-3,.1823E-4,0
STARLINK-33956,2025-098B,2026-07-07T08:56:34.676448,14.98344661,.0002992,70.0026,332.5381,265.2460,94.8358,0,U,63927,999,6449,.22346312E-3,.2575E-4,0
STARLINK-33997,2025-098C,2026-07-06T16:43:14.990592,14.98333177,.00032505,70.0023,334.5919,263.5885,96.4904,0,U,63928,999,6439,.16317643E-3,.1855E-4,0
STARLINK-33989,2025-098D,2026-07-07T09:44:53.680704,14.98341426,.00046371,69.9988,332.6583,276.2795,83.7836,0,U,63929,999,6450,.3314839E-3,.3866E-4,0
STARLINK-33980,2025-098E,2026-07-06T16:37:14.334528,14.98330785,.00032225,70.0029,334.5845,266.4738,93.6052,0,U,63930,999,6439,.27617319E-3,.3204E-4,0
STARLINK-33994,2025-098F,2026-07-07T09:38:53.504160,14.98334279,.00028818,70.0022,332.6431,267.5874,92.4955,0,U,63931,999,6450,.3782232E-3,.4423E-4,0
STARLINK-33971,2025-098G,2026-07-07T10:08:55.887648,14.98344354,.00034858,70.0002,332.7153,262.8602,97.2161,0,U,63932,999,6450,.47606646E-3,.5594E-4,0
STARLINK-33877,2025-098H,2026-07-07T09:02:49.701696,14.98333345,.00027106,70.0022,332.5462,271.0428,89.0421,0,U,63933,999,6450,.34923105E-3,.4077E-4,0
STARLINK-33895,2025-098J,2026-07-07T09:14:50.929152,14.98345190,.00032354,70.0023,332.5825,268.0183,92.0605,0,U,63934,999,6450,.25400492E-3,.294E-4,0
STARLINK-34005,2025-098K,2026-07-07T08:38:49.518240,14.98333299,.00032059,70.0016,332.8925,268.4272,91.6519,0,U,63935,999,6448,.43813768E-3,.5139E-4,0
STARLINK-34027,2025-098L,2026-07-06T16:49:27.603552,14.98334049,.00029626,70.0029,334.2070,266.8353,93.2467,0,U,63936,999,6438,.15010451E-3,.1699E-4,0
STARLINK-34035,2025-098M,2026-07-07T09:32:52.791072,14.98333639,.00030616,70.0023,332.6258,266.5763,93.5046,0,U,63937,999,6448,.35399018E-3,.4134E-4,0
