STARLINK-34092          
1 63904U 25095Q   26188.53591860  .00008074  00000+0  30245-3 0  9990
2 63904  43.0029 219.6546 0001663 216.0316 144.0424 15.27598261 66108
STARLINK-34114          
1 63905U 25095R   26188.15131284  .00008543  00000+0  31983-3 0  9990
2 63905  43.0008 221.9337 0001294 263.9478  96.1226 15.27558551 66048
STARLINK-33770          
1 63906U 25095S   26188.16915621  .00012407  00000+0  45990-3 0  9994
2 63906  42.9991 221.1974 0001320 272.2395  87.8305 15.27560491 66050
STARLINK-34106          
1 63907U 25095T   26188.16530298  .00012519  00000+0  46393-3 0  9990
2 63907  42.9997 221.1666 0002524 291.1985  68.8596 15.27561333 66054
STARLINK-34083          
1 63908U 25095U   26188.14746130  .00013532  00000+0  50068-3 0  9993
2 63908  43.0024 221.9034 0001455 267.6363  92.4322 15.27558233 66049
STARLINK-34066          
1 63909U 25095V   26188.52564603  .00017823  00000+0  65586-3 0  9997
2 63909  43.0001 219.5769 0001522 268.0876  91.9801 15.27568437 66102
STARLINK-34071          
1 63910U 25095W   26188.20513781  .00011633  00000+0  43183-3 0  9997
2 63910  43.0017 221.4729 0001333 266.8782  93.1917 15.27561091 66056
STARLINK-34038          
1 63911U 25095X   26188.45254944  .00009073  00000+0  33899-3 0  9996
2 63911  42.9991 219.8858 0001389 276.3649  83.7044 15.27562623 66091
STARLINK-34031          
1 63912U 25095Y   26188.12946943  .00012657  00000+0  46886-3 0  9990
2 63912  42.9998 221.7614 0001751 276.2229  83.8423 15.27566136 66047
STARLINK-34070          
1 63913U 25095Z   26188.44869482  .00014187  00000+0  52423-3 0  9992
2 63913  42.9990 219.8550 0000986 291.8235  68.2512 15.27569985 66092
STARLINK-34068          
1 63914U 25095AA  26188.43841779  .00011947  00000+0  44306-3 0  9993
2 63914  42.9977 219.7766 0001413 289.0557  71.0141 15.27573324 66090
STARLINK-34076          
1 63915U 25095AB  26188.44483394  .00009787  00000+0  36475-3 0  9997
2 63915  42.9992 219.8253 0001543 270.4241  89.6433 15.27575542 66091
STARLINK-33910          
1 63916U 25095AC  26188.55375358  .00010097  00000+0  37581-3 0  9995
2 63916  43.0017 218.9258 0002076 287.0649  72.9975 15.27590192 66112
STARLINK-34075          
1 63917U 25095AD  26188.43456880  .00009425  00000+0  35189-3 0  9998
2 63917  42.9975 219.7491 0001216 292.5773  67.4950 15.27551251 66098
YAOGAN-40 02A           
1 63918U 25096A   26188.61284687  .00000114  00000+0  51837-4 0  9999
2 63918  85.9956 178.8189 0002407  77.7805 282.3647 14.12452229 59457
YAOGAN-40 02B           
1 63919U 25096B   26188.61299760  .00000150  00000+0  71355-4 0  9995
2 63919  85.9952 178.7872 0002508  89.7980 270.3491 14.12451443 59452
YAOGAN-40 02C           
1 63920U 25096C   26188.61291425  .00000141  00000+0  66293-4 0  9992
2 63920  85.9959 178.0661 0002319  80.8832 279.2613 14.12453571 78299
TJS-19                  
1 63924U 25097A   26188.74331649 -.00000260  00000+0  00000+0 0  9996
2 63924   3.2534 317.7536 0003766 242.1776 134.6322  1.00269406  4357
STARLINK-34012          
1 63926U 25098A   26187.68418114  .00001823  00000+0  16052-3 0  9997
2 63926  70.0023 334.5548 0002991 265.8334  94.2483 14.98329262 64415
STARLINK-33956          
1 63927U 25098B   26188.37262357  .00002575  00000+0  22346-3 0  9999
2 63927  70.0026 332.5381 0002992 265.2460  94.8358 14.98344661 64492
STARLINK-33997          
1 63928U 25098C   26187.69670128  .00001855  00000+0  16318-3 0  9995
2 63928  70.0023 334.5919 0003250 263.5885  96.4904 14.98333177 64393
STARLINK-33989          
1 63929U 25098D   26188.40617686  .00003866  00000+0  33148-3 0  9990
2 63929  69.9988 332.6583 0004637 276.2795  83.7836 14.98341426 64500
STARLINK-33980          
1 63930U 25098E   26187.69252702  .00003204  00000+0  27617-3 0  9996
2 63930  70.0029 334.5845 0003222 266.4738  93.6052 14.98330785 64393
STARLINK-33994          
1 63931U 25098F   26188.40200815  .00004423  00000+0  37822-3 0  9998
2 63931  70.0022 332.6431 0002881 267.5874  92.4955 14.98334279 64504
STARLINK-33971          
1 63932U 25098G   26188.42286907  .00005594  00000+0  47607-3 0  9999
2 63932  70.0002 332.7153 0003485 262.8602  97.2161 14.98344354 64500
STARLINK-33877          
1 63933U 25098H   26188.37696414  .00004077  00000+0  34923-3 0  9994
2 63933  70.0022 332.5462 0002710 271.0428  89.0421 14.98333345 64508
STARLINK-33895          
1 63934U 25098J   26188.38531168  .00002940  00000+0  25400-3 0  9997
2 63934  70.0023 332.5825 0003235 268.0183  92.0605 14.98345190 64509
STARLINK-34005          
1 63935U 25098K   26188.36029535  .00005139  00000+0  43814-3 0  9998
2 63935  70.0016 332.8925 0003205 268.4272  91.6519 14.98333299 64489
STARLINK-34027          
1 63936U 25098L   26187.70101393  .00001699  00000+0  15010-3 0  9993
2 63936  70.0029 334.2070 0002962 266.8353  93.2467 14.98334049 64385
STARLINK-34035          
1 63937U 25098M   26188.39783323  .00004134  00000+0  35399-3 0  9998
2 63937  70.0023 332.6258 0003061 266.5763  93.5046 14.98333639 64484
